[{"OBJECT_NAME":"IRIDIUM 165","OBJECT_ID":"2018-061D","EPOCH":"2026-03-09T12:28:22.404000","MEAN_MOTION":14.34217296,"ECCENTRICITY":0.00020877,"INCLINATION":86.3917,"RA_OF_ASC_NODE":98.4934,"ARG_OF_PERICENTER":96.9181,"MEAN_ANOMALY":263.2252,"EPHEMERIS_TYPE":0,"CLASSIFICATION_TYPE":"U","NORAD_CAT_ID":43572,"ELEMENT_SET_NO":999,"REV_AT_EPOCH":39910,"BSTAR":7.29473e-7,"MEAN_MOTION_DOT":2.2e-7,"MEAN_MOTION_DDOT":0},{"OBJECT_NAME":"SL-8 R\/B","OBJECT_ID":"1979-060B","EPOCH":"2026-03-09T23:13:51.380256","MEAN_MOTION":14.3884284,"ECCENTRICITY":0.0019389,"INCLINATION":74.0143,"RA_OF_ASC_NODE":271.7518,"ARG_OF_PERICENTER":5.357,"MEAN_ANOMALY":354.7787,"EPHEMERIS_TYPE":0,"CLASSIFICATION_TYPE":"U","NORAD_CAT_ID":11427,"ELEMENT_SET_NO":999,"REV_AT_EPOCH":44576,"BSTAR":0.00012271093,"MEAN_MOTION_DOT":3.52e-6,"MEAN_MOTION_DDOT":0}]
